FENGYUN 1C DEB          
1 30709U 99025ART 17346.30612137  .00000966  00000-0  67788-3 0  9998
2 30709  99.0769 278.7191 0101042  81.3176  69.3630 13.98215278550520
